2025-313A               
1 67248U 25313A   26025.91858393  .00002422  00000+0  24492-3 0  9995
2 67248  97.5609 101.2670 0280423  73.8823 289.3058 14.66846874  4162
2025-313B               
1 67249U 25313B   26025.93265202  .00005012  00000+0  38325-3 0  9997
2 67249  97.5297 101.4285 0297469  77.6425 285.7909 14.73308517  4180
2025-313C               
1 67250U 25313C   26025.91786793  .00021617  00000+0  19943-2 0  9993
2 67250  97.6335 102.2644 0161682  87.1437 274.8270 14.85172479  4213
2025-313D               
1 67251U 25313D   26025.90615365  .00004381  00000+0  38139-3 0  9997
2 67251  97.5853 102.2384 0152308  79.7650 282.0703 14.88841145  4227
ZORKIY-2M-VPE           
1 67252U 25313E   26025.95484610  .00013740  00000+0  60474-3 0  9996
2 67252  97.4090 102.9882 0011640 121.6209 238.6164 15.21908664  4327
AIST-2T 1               
1 67253U 25313F   26025.94077046  .00074007  00000+0  70199-3 0  9995
2 67253  97.1008 103.3671 0010487 137.5907 222.6166 15.66614749  4427
AIST-2T 2               
1 67254U 25313G   26025.94861801  .00041168  00000+0  43394-3 0  9995
2 67254  97.1002 103.3562 0007805 184.7404 175.3784 15.64114866  4419
2025-313H               
1 67255U 25313H   26025.98703845  .00004180  00000+0  29357-3 0  9999
2 67255  97.3060 101.8413 0091423  99.2936 261.8642 15.02254790  4274
SITRO-AIS-57            
1 67256U 25313J   26025.85606450  .00016324  00000+0  75233-3 0  9997
2 67256  97.4080 102.8098 0017589 138.7414 221.5154 15.20210995  4303
SITRO-AIS-59            
1 67257U 25313K   26025.92134682  .00016003  00000+0  73745-3 0  9999
2 67257  97.4086 102.8773 0017360 140.5666 219.6836 15.20221979  4317
SITRO-AIS-58            
1 67258U 25313L   26025.92065736  .00016328  00000+0  75117-3 0  9998
2 67258  97.4081 102.8760 0017289 139.8042 220.4475 15.20275609  4316
2025-313M               
1 67259U 25313M   26025.91561635  .00020999  00000+0  95429-3 0  9994
2 67259  97.4123 102.9101 0016380 138.6301 221.6178 15.20658334  4313
