CCSDS_OMM_VERS = 2.0
CREATION_DATE  = 
ORIGINATOR     = 

OBJECT_NAME    = 2025-313A
OBJECT_ID      = 2025-313A
CENTER_NAME    = EARTH
REF_FRAME      = TEME
TIME_SYSTEM    = UTC
MEAN_ELEMENT_THEORY = SGP/SGP4

EPOCH          = 2026-01-25T22:02:45.651552
MEAN_MOTION    = 14.66846874
ECCENTRICITY   = .02804233
INCLINATION    = 97.5609
RA_OF_ASC_NODE = 101.2670
ARG_OF_PERICENTER = 73.8823
MEAN_ANOMALY   = 289.3058

EPHEMERIS_TYPE = 0
CLASSIFICATION_TYPE = U
NORAD_CAT_ID   = 67248
ELEMENT_SET_NO = 999
REV_AT_EPOCH   = 416
BSTAR          = .24491607E-3
MEAN_MOTION_DOT = .2422E-4
MEAN_MOTION_DDOT = 0

CCSDS_OMM_VERS = 2.0
CREATION_DATE  = 
ORIGINATOR     = 

OBJECT_NAME    = 2025-313B
OBJECT_ID      = 2025-313B
CENTER_NAME    = EARTH
REF_FRAME      = TEME
TIME_SYSTEM    = UTC
MEAN_ELEMENT_THEORY = SGP/SGP4

EPOCH          = 2026-01-25T22:23:01.134528
MEAN_MOTION    = 14.73308517
ECCENTRICITY   = .02974699
INCLINATION    = 97.5297
RA_OF_ASC_NODE = 101.4285
ARG_OF_PERICENTER = 77.6425
MEAN_ANOMALY   = 285.7909

EPHEMERIS_TYPE = 0
CLASSIFICATION_TYPE = U
NORAD_CAT_ID   = 67249
ELEMENT_SET_NO = 999
REV_AT_EPOCH   = 418
BSTAR          = .38324578E-3
MEAN_MOTION_DOT = .5012E-4
MEAN_MOTION_DDOT = 0

CCSDS_OMM_VERS = 2.0
CREATION_DATE  = 
ORIGINATOR     = 

OBJECT_NAME    = 2025-313C
OBJECT_ID      = 2025-313C
CENTER_NAME    = EARTH
REF_FRAME      = TEME
TIME_SYSTEM    = UTC
MEAN_ELEMENT_THEORY = SGP/SGP4

EPOCH          = 2026-01-25T22:01:43.789152
MEAN_MOTION    = 14.85172479
ECCENTRICITY   = .01616822
INCLINATION    = 97.6335
RA_OF_ASC_NODE = 102.2644
ARG_OF_PERICENTER = 87.1437
MEAN_ANOMALY   = 274.8270

EPHEMERIS_TYPE = 0
CLASSIFICATION_TYPE = U
NORAD_CAT_ID   = 67250
ELEMENT_SET_NO = 999
REV_AT_EPOCH   = 421
BSTAR          = .19942849E-2
MEAN_MOTION_DOT = .21617E-3
MEAN_MOTION_DDOT = 0

CCSDS_OMM_VERS = 2.0
CREATION_DATE  = 
ORIGINATOR     = 

OBJECT_NAME    = 2025-313D
OBJECT_ID      = 2025-313D
CENTER_NAME    = EARTH
REF_FRAME      = TEME
TIME_SYSTEM    = UTC
MEAN_ELEMENT_THEORY = SGP/SGP4

EPOCH          = 2026-01-25T21:44:51.675360
MEAN_MOTION    = 14.88841145
ECCENTRICITY   = .01523089
INCLINATION    = 97.5853
RA_OF_ASC_NODE = 102.2384
ARG_OF_PERICENTER = 79.7650
MEAN_ANOMALY   = 282.0703

EPHEMERIS_TYPE = 0
CLASSIFICATION_TYPE = U
NORAD_CAT_ID   = 67251
ELEMENT_SET_NO = 999
REV_AT_EPOCH   = 422
BSTAR          = .3813903E-3
MEAN_MOTION_DOT = .4381E-4
MEAN_MOTION_DDOT = 0

CCSDS_OMM_VERS = 2.0
CREATION_DATE  = 
ORIGINATOR     = 

OBJECT_NAME    = ZORKIY-2M-VPE
OBJECT_ID      = 2025-313E
CENTER_NAME    = EARTH
REF_FRAME      = TEME
TIME_SYSTEM    = UTC
MEAN_ELEMENT_THEORY = SGP/SGP4

EPOCH          = 2026-01-25T22:54:58.703040
MEAN_MOTION    = 15.21908664
ECCENTRICITY   = .00116408
INCLINATION    = 97.4090
RA_OF_ASC_NODE = 102.9882
ARG_OF_PERICENTER = 121.6209
MEAN_ANOMALY   = 238.6164

EPHEMERIS_TYPE = 0
CLASSIFICATION_TYPE = U
NORAD_CAT_ID   = 67252
ELEMENT_SET_NO = 999
REV_AT_EPOCH   = 432
BSTAR          = .60474496E-3
MEAN_MOTION_DOT = .1374E-3
MEAN_MOTION_DDOT = 0

CCSDS_OMM_VERS = 2.0
CREATION_DATE  = 
ORIGINATOR     = 

OBJECT_NAME    = AIST-2T 1
OBJECT_ID      = 2025-313F
CENTER_NAME    = EARTH
REF_FRAME      = TEME
TIME_SYSTEM    = UTC
MEAN_ELEMENT_THEORY = SGP/SGP4

EPOCH          = 2026-01-25T22:34:42.567744
MEAN_MOTION    = 15.66614749
ECCENTRICITY   = .00104874
INCLINATION    = 97.1008
RA_OF_ASC_NODE = 103.3671
ARG_OF_PERICENTER = 137.5907
MEAN_ANOMALY   = 222.6166

EPHEMERIS_TYPE = 0
CLASSIFICATION_TYPE = U
NORAD_CAT_ID   = 67253
ELEMENT_SET_NO = 999
REV_AT_EPOCH   = 442
BSTAR          = .70199323E-3
MEAN_MOTION_DOT = .74007E-3
MEAN_MOTION_DDOT = 0

CCSDS_OMM_VERS = 2.0
CREATION_DATE  = 
ORIGINATOR     = 

OBJECT_NAME    = AIST-2T 2
OBJECT_ID      = 2025-313G
CENTER_NAME    = EARTH
REF_FRAME      = TEME
TIME_SYSTEM    = UTC
MEAN_ELEMENT_THEORY = SGP/SGP4

EPOCH          = 2026-01-25T22:46:00.596064
MEAN_MOTION    = 15.64114866
ECCENTRICITY   = .00078052
INCLINATION    = 97.1002
RA_OF_ASC_NODE = 103.3562
ARG_OF_PERICENTER = 184.7404
MEAN_ANOMALY   = 175.3784

EPHEMERIS_TYPE = 0
CLASSIFICATION_TYPE = U
NORAD_CAT_ID   = 67254
ELEMENT_SET_NO = 999
REV_AT_EPOCH   = 441
BSTAR          = .43394061E-3
MEAN_MOTION_DOT = .41168E-3
MEAN_MOTION_DDOT = 0

CCSDS_OMM_VERS = 2.0
CREATION_DATE  = 
ORIGINATOR     = 

OBJECT_NAME    = 2025-313H
OBJECT_ID      = 2025-313H
CENTER_NAME    = EARTH
REF_FRAME      = TEME
TIME_SYSTEM    = UTC
MEAN_ELEMENT_THEORY = SGP/SGP4

EPOCH          = 2026-01-25T23:41:20.122080
MEAN_MOTION    = 15.02254790
ECCENTRICITY   = .00914237
INCLINATION    = 97.3060
RA_OF_ASC_NODE = 101.8413
ARG_OF_PERICENTER = 99.2936
MEAN_ANOMALY   = 261.8642

EPHEMERIS_TYPE = 0
CLASSIFICATION_TYPE = U
NORAD_CAT_ID   = 67255
ELEMENT_SET_NO = 999
REV_AT_EPOCH   = 427
BSTAR          = .29357047E-3
MEAN_MOTION_DOT = .418E-4
MEAN_MOTION_DDOT = 0

CCSDS_OMM_VERS = 2.0
CREATION_DATE  = 
ORIGINATOR     = 

OBJECT_NAME    = SITRO-AIS-57
OBJECT_ID      = 2025-313J
CENTER_NAME    = EARTH
REF_FRAME      = TEME
TIME_SYSTEM    = UTC
MEAN_ELEMENT_THEORY = SGP/SGP4

EPOCH          = 2026-01-25T20:32:43.972800
MEAN_MOTION    = 15.20210995
ECCENTRICITY   = .00175899
INCLINATION    = 97.4080
RA_OF_ASC_NODE = 102.8098
ARG_OF_PERICENTER = 138.7414
MEAN_ANOMALY   = 221.5154

EPHEMERIS_TYPE = 0
CLASSIFICATION_TYPE = U
NORAD_CAT_ID   = 67256
ELEMENT_SET_NO = 999
REV_AT_EPOCH   = 430
BSTAR          = .75232586E-3
MEAN_MOTION_DOT = .16324E-3
MEAN_MOTION_DDOT = 0

CCSDS_OMM_VERS = 2.0
CREATION_DATE  = 
ORIGINATOR     = 

OBJECT_NAME    = SITRO-AIS-59
OBJECT_ID      = 2025-313K
CENTER_NAME    = EARTH
REF_FRAME      = TEME
TIME_SYSTEM    = UTC
MEAN_ELEMENT_THEORY = SGP/SGP4

EPOCH          = 2026-01-25T22:06:44.365248
MEAN_MOTION    = 15.20221979
ECCENTRICITY   = .00173609
INCLINATION    = 97.4086
RA_OF_ASC_NODE = 102.8773
ARG_OF_PERICENTER = 140.5666
MEAN_ANOMALY   = 219.6836

EPHEMERIS_TYPE = 0
CLASSIFICATION_TYPE = U
NORAD_CAT_ID   = 67257
ELEMENT_SET_NO = 999
REV_AT_EPOCH   = 431
BSTAR          = .737453E-3
MEAN_MOTION_DOT = .16003E-3
MEAN_MOTION_DDOT = 0

CCSDS_OMM_VERS = 2.0
CREATION_DATE  = 
ORIGINATOR     = 

OBJECT_NAME    = SITRO-AIS-58
OBJECT_ID      = 2025-313L
CENTER_NAME    = EARTH
REF_FRAME      = TEME
TIME_SYSTEM    = UTC
MEAN_ELEMENT_THEORY = SGP/SGP4

EPOCH          = 2026-01-25T22:05:44.795904
MEAN_MOTION    = 15.20275609
ECCENTRICITY   = .00172895
INCLINATION    = 97.4081
RA_OF_ASC_NODE = 102.8760
ARG_OF_PERICENTER = 139.8042
MEAN_ANOMALY   = 220.4475

EPHEMERIS_TYPE = 0
CLASSIFICATION_TYPE = U
NORAD_CAT_ID   = 67258
ELEMENT_SET_NO = 999
REV_AT_EPOCH   = 431
BSTAR          = .75116882E-3
MEAN_MOTION_DOT = .16328E-3
MEAN_MOTION_DDOT = 0

CCSDS_OMM_VERS = 2.0
CREATION_DATE  = 
ORIGINATOR     = 

OBJECT_NAME    = 2025-313M
OBJECT_ID      = 2025-313M
CENTER_NAME    = EARTH
REF_FRAME      = TEME
TIME_SYSTEM    = UTC
MEAN_ELEMENT_THEORY = SGP/SGP4

EPOCH          = 2026-01-25T21:58:29.252640
MEAN_MOTION    = 15.20658334
ECCENTRICITY   = .001638
INCLINATION    = 97.4123
RA_OF_ASC_NODE = 102.9101
ARG_OF_PERICENTER = 138.6301
MEAN_ANOMALY   = 221.6178

EPHEMERIS_TYPE = 0
CLASSIFICATION_TYPE = U
NORAD_CAT_ID   = 67259
ELEMENT_SET_NO = 999
REV_AT_EPOCH   = 431
BSTAR          = .95429492E-3
MEAN_MOTION_DOT = .20999E-3
MEAN_MOTION_DDOT = 0

